{
  "type": "FeatureCollection",
  "features": [
    {
      "type": "Feature",
      "properties": {
        "norad_id": 66597,
        "name": "STARLINK-35820",
        "group": "last-30-days",
        "lat": -11.856854766811722,
        "lon": -10.360586346361755,
        "alt_km": 445.2598225834099,
        "timestamp": "2025-12-18T23:35:47.780846+00:00",
        "meta_object_name": "STARLINK-35820",
        "meta_object_id": "2025-270K",
        "meta_epoch": "2025-12-18T13:24:30.225024",
        "meta_mean_motion": 15.40729987,
        "meta_eccentricity": 0.00018851,
        "meta_inclination": 42.9988,
        "meta_ra_of_asc_node": 159.0654,
        "meta_arg_of_pericenter": 294.5931,
        "meta_mean_anomaly": 65.4729,
        "meta_ephemeris_type": 0,
        "meta_classification_type": "U",
        "meta_norad_cat_id": 66597,
        "meta_element_set_no": 999,
        "meta_rev_at_epoch": 535,
        "meta_bstar": 0.00083492334,
        "meta_mean_motion_dot": 0.00034768,
        "meta_mean_motion_ddot": 0,
        "tle_line1": "1 66597U 25270K   25352.55868316  .00034768  00000+0  83492-3 0  9994",
        "tle_line2": "2 66597  42.9988 159.0654 0001885 294.5931  65.4729 15.40729987  5358"
      },
      "geometry": {
        "type": "Point",
        "coordinates": [
          -10.360586346361755,
          -11.856854766811722
        ]
      }
    },
    {
      "type": "Feature",
      "properties": {
        "norad_id": 66598,
        "name": "STARLINK-35981",
        "group": "last-30-days",
        "lat": -41.31222278988369,
        "lon": 85.81344740434645,
        "alt_km": 446.11416122837363,
        "timestamp": "2025-12-18T23:35:47.780856+00:00",
        "meta_object_name": "STARLINK-35981",
        "meta_object_id": "2025-270L",
        "meta_epoch": "2025-12-18T16:00:00.999936",
        "meta_mean_motion": 15.40690339,
        "meta_eccentricity": 0.00018927,
        "meta_inclination": 42.9991,
        "meta_ra_of_asc_node": 158.2344,
        "meta_arg_of_pericenter": 269.182,
        "meta_mean_anomaly": 57.66,
        "meta_ephemeris_type": 0,
        "meta_classification_type": "U",
        "meta_norad_cat_id": 66598,
        "meta_element_set_no": 999,
        "meta_rev_at_epoch": 519,
        "meta_bstar": 9.1465155e-05,
        "meta_mean_motion_dot": 3.518e-05,
        "meta_mean_motion_ddot": 0,
        "tle_line1": "1 66598U 25270L   25352.66667824  .00003518  00000+0  91465-4 0  9997",
        "tle_line2": "2 66598  42.9991 158.2344 0001892 269.1820  57.6600 15.40690339  5194"
      },
      "geometry": {
        "type": "Point",
        "coordinates": [
          85.81344740434645,
          -41.31222278988369
        ]
      }
    },
    {
      "type": "Feature",
      "properties": {
        "norad_id": 66599,
        "name": "STARLINK-35930",
        "group": "last-30-days",
        "lat": 14.475020696835985,
        "lon": 172.2551727050578,
        "alt_km": 412.984461974901,
        "timestamp": "2025-12-18T23:35:47.780866+00:00",
        "meta_object_name": "STARLINK-35930",
        "meta_object_id": "2025-270M",
        "meta_epoch": "2025-12-18T14:13:43.273344",
        "meta_mean_motion": 15.50586883,
        "meta_eccentricity": 0.00011875,
        "meta_inclination": 42.999,
        "meta_ra_of_asc_node": 158.4552,
        "meta_arg_of_pericenter": 260.945,
        "meta_mean_anomaly": 99.1275,
        "meta_ephemeris_type": 0,
        "meta_classification_type": "U",
        "meta_norad_cat_id": 66599,
        "meta_element_set_no": 999,
        "meta_rev_at_epoch": 525,
        "meta_bstar": 0.00079042727,
        "meta_mean_motion_dot": 0.00046316,
        "meta_mean_motion_ddot": 0,
        "tle_line1": "1 66599U 25270M   25352.59286196  .00046316  00000+0  79043-3 0  9999",
        "tle_line2": "2 66599  42.9990 158.4552 0001187 260.9450  99.1275 15.50586883  5257"
      },
      "geometry": {
        "type": "Point",
        "coordinates": [
          172.2551727050578,
          14.475020696835985
        ]
      }
    },
    {
      "type": "Feature",
      "properties": {
        "norad_id": 66600,
        "name": "STARLINK-35980",
        "group": "last-30-days",
        "lat": -17.283975728241845,
        "lon": 136.78294559348234,
        "alt_km": 445.20480630148995,
        "timestamp": "2025-12-18T23:35:47.780878+00:00",
        "meta_object_name": "STARLINK-35980",
        "meta_object_id": "2025-270N",
        "meta_epoch": "2025-12-18T16:00:00.999936",
        "meta_mean_motion": 15.40669869,
        "meta_eccentricity": 0.00017829,
        "meta_inclination": 42.9991,
        "meta_ra_of_asc_node": 158.1144,
        "meta_arg_of_pericenter": 272.1273,
        "meta_mean_anomaly": 104.4903,
        "meta_ephemeris_type": 0,
        "meta_classification_type": "U",
        "meta_norad_cat_id": 66600,
        "meta_element_set_no": 999,
        "meta_rev_at_epoch": 525,
        "meta_bstar": 0.00038597713,
        "meta_mean_motion_dot": 0.00015837,
        "meta_mean_motion_ddot": 0,
        "tle_line1": "1 66600U 25270N   25352.66667824  .00015837  00000+0  38598-3 0  9995",
        "tle_line2": "2 66600  42.9991 158.1144 0001782 272.1273 104.4903 15.40669869  5257"
      },
      "geometry": {
        "type": "Point",
        "coordinates": [
          136.78294559348234,
          -17.283975728241845
        ]
      }
    },
    {
      "type": "Feature",
      "properties": {
        "norad_id": 66601,
        "name": "STARLINK-35978",
        "group": "last-30-days",
        "lat": -33.82881013710827,
        "lon": 22.519896125162283,
        "alt_km": 446.0043974436521,
        "timestamp": "2025-12-18T23:35:47.780888+00:00",
        "meta_object_name": "STARLINK-35978",
        "meta_object_id": "2025-270P",
        "meta_epoch": "2025-12-18T16:00:00.999936",
        "meta_mean_motion": 15.40684359,
        "meta_eccentricity": 0.00016639,
        "meta_inclination": 42.9986,
        "meta_ra_of_asc_node": 158.3546,
        "meta_arg_of_pericenter": 259.3421,
        "meta_mean_anomaly": 17.743,
        "meta_ephemeris_type": 0,
        "meta_classification_type": "U",
        "meta_norad_cat_id": 66601,
        "meta_element_set_no": 999,
        "meta_rev_at_epoch": 519,
        "meta_bstar": 0.00012332129,
        "meta_mean_motion_dot": 4.849e-05,
        "meta_mean_motion_ddot": 0,
        "tle_line1": "1 66601U 25270P   25352.66667824  .00004849  00000+0  12332-3 0  9995",
        "tle_line2": "2 66601  42.9986 158.3546 0001663 259.3421  17.7430 15.40684359  5195"
      },
      "geometry": {
        "type": "Point",
        "coordinates": [
          22.519896125162283,
          -33.82881013710827
        ]
      }
    },
    {
      "type": "Feature",
      "properties": {
        "norad_id": 66602,
        "name": "STARLINK-36050",
        "group": "last-30-days",
        "lat": 13.351390427983668,
        "lon": -38.04890388875782,
        "alt_km": 442.2229092624666,
        "timestamp": "2025-12-18T23:35:47.780898+00:00",
        "meta_object_name": "STARLINK-36050",
        "meta_object_id": "2025-270Q",
        "meta_epoch": "2025-12-18T13:34:11.025696",
        "meta_mean_motion": 15.40718042,
        "meta_eccentricity": 0.00016676,
        "meta_inclination": 42.9982,
        "meta_ra_of_asc_node": 159.1158,
        "meta_arg_of_pericenter": 272.1493,
        "meta_mean_anomaly": 87.9173,
        "meta_ephemeris_type": 0,
        "meta_classification_type": "U",
        "meta_norad_cat_id": 66602,
        "meta_element_set_no": 999,
        "meta_rev_at_epoch": 514,
        "meta_bstar": 0.0011316262,
        "meta_mean_motion_dot": 0.0004729,
        "meta_mean_motion_ddot": 0,
        "tle_line1": "1 66602U 25270Q   25352.56540539  .00047290  00000+0  11316-2 0  9995",
        "tle_line2": "2 66602  42.9982 159.1158 0001667 272.1493  87.9173 15.40718042  5141"
      },
      "geometry": {
        "type": "Point",
        "coordinates": [
          -38.04890388875782,
          13.351390427983668
        ]
      }
    },
    {
      "type": "Feature",
      "properties": {
        "norad_id": 66603,
        "name": "STARLINK-36048",
        "group": "last-30-days",
        "lat": -42.94550818467869,
        "lon": 69.19764518359415,
        "alt_km": 446.6075337745424,
        "timestamp": "2025-12-18T23:35:47.780909+00:00",
        "meta_object_name": "STARLINK-36048",
        "meta_object_id": "2025-270R",
        "meta_epoch": "2025-12-18T16:00:00.999936",
        "meta_mean_motion": 15.40688067,
        "meta_eccentricity": 0.000123,
        "meta_inclination": 42.9989,
        "meta_ra_of_asc_node": 158.2639,
        "meta_arg_of_pericenter": 271.6778,
        "meta_mean_anomaly": 42.7214,
        "meta_ephemeris_type": 0,
        "meta_classification_type": "U",
        "meta_norad_cat_id": 66603,
        "meta_element_set_no": 999,
        "meta_rev_at_epoch": 525,
        "meta_bstar": 6.4335212e-05,
        "meta_mean_motion_dot": 2.384e-05,
        "meta_mean_motion_ddot": 0,
        "tle_line1": "1 66603U 25270R   25352.66667824  .00002384  00000+0  64335-4 0  9990",
        "tle_line2": "2 66603  42.9989 158.2639 0001230 271.6778  42.7214 15.40688067  5259"
      },
      "geometry": {
        "type": "Point",
        "coordinates": [
          69.19764518359415,
          -42.94550818467869
        ]
      }
    }
  ]
}